{
  "type": "FeatureCollection",
  "features": [
    {
      "type": "Feature",
      "properties": {
        "norad_id": 43719,
        "name": "HYSIS",
        "group": "resource",
        "lat": 78.50581237726067,
        "lon": -3.827185840642782,
        "alt_km": 625.2718271635467,
        "timestamp": "2025-12-02T23:34:15.171281+00:00",
        "meta_object_name": "HYSIS",
        "meta_object_id": "2018-096A",
        "meta_epoch": "2025-12-02T15:04:55.138080",
        "meta_mean_motion": 14.78596971,
        "meta_eccentricity": 0.0001703,
        "meta_inclination": 98.0111,
        "meta_ra_of_asc_node": 39.6552,
        "meta_arg_of_pericenter": 68.6341,
        "meta_mean_anomaly": 291.5051,
        "meta_ephemeris_type": 0,
        "meta_classification_type": "U",
        "meta_norad_cat_id": 43719,
        "meta_element_set_no": 999,
        "meta_rev_at_epoch": 37837,
        "meta_bstar": 2.2921e-05,
        "meta_mean_motion_dot": 1.16e-06,
        "meta_mean_motion_ddot": 0,
        "tle_line1": "1 43719U 18096A   25336.62841595  .00000116  00000+0  22921-4 0  9994",
        "tle_line2": "2 43719  98.0111  39.6552 0001703  68.6341 291.5051 14.78596971378373"
      },
      "geometry": {
        "type": "Point",
        "coordinates": [
          -3.827185840642782,
          78.50581237726067
        ]
      }
    },
    {
      "type": "Feature",
      "properties": {
        "norad_id": 43783,
        "name": "KAZSTSAT",
        "group": "resource",
        "lat": -47.462167367733315,
        "lon": 20.791695023475377,
        "alt_km": 573.193970309565,
        "timestamp": "2025-12-02T23:34:15.171291+00:00",
        "meta_object_name": "KAZSTSAT",
        "meta_object_id": "2018-099AB",
        "meta_epoch": "2025-12-02T01:21:35.196768",
        "meta_mean_motion": 14.99291992,
        "meta_eccentricity": 0.00066196,
        "meta_inclination": 97.4552,
        "meta_ra_of_asc_node": 11.7011,
        "meta_arg_of_pericenter": 8.824,
        "meta_mean_anomaly": 351.3099,
        "meta_ephemeris_type": 0,
        "meta_classification_type": "U",
        "meta_norad_cat_id": 43783,
        "meta_element_set_no": 999,
        "meta_rev_at_epoch": 38176,
        "meta_bstar": 0.00020697251,
        "meta_mean_motion_dot": 2.472e-05,
        "meta_mean_motion_ddot": 0,
        "tle_line1": "1 43783U 18099AB  25336.05665737  .00002472  00000+0  20697-3 0  9991",
        "tle_line2": "2 43783  97.4552  11.7011 0006619   8.8240 351.3099 14.99291992381764"
      },
      "geometry": {
        "type": "Point",
        "coordinates": [
          20.791695023475377,
          -47.462167367733315
        ]
      }
    },
    {
      "type": "Feature",
      "properties": {
        "norad_id": 43831,
        "name": "SAUDISAT 5A",
        "group": "resource",
        "lat": 14.88626758796707,
        "lon": -140.67437163277907,
        "alt_km": 486.17652592752984,
        "timestamp": "2025-12-02T23:34:15.171301+00:00",
        "meta_object_name": "SAUDISAT 5A",
        "meta_object_id": "2018-102A",
        "meta_epoch": "2025-12-02T11:49:52.762656",
        "meta_mean_motion": 15.2545428,
        "meta_eccentricity": 0.0011783,
        "meta_inclination": 97.3376,
        "meta_ra_of_asc_node": 36.8829,
        "meta_arg_of_pericenter": 107.7006,
        "meta_mean_anomaly": 252.5519,
        "meta_ephemeris_type": 0,
        "meta_classification_type": "U",
        "meta_norad_cat_id": 43831,
        "meta_element_set_no": 999,
        "meta_rev_at_epoch": 38566,
        "meta_bstar": 0.00031533,
        "meta_mean_motion_dot": 7.922e-05,
        "meta_mean_motion_ddot": 0,
        "tle_line1": "1 43831U 18102A   25336.49297179  .00007922  00000+0  31533-3 0  9995",
        "tle_line2": "2 43831  97.3376  36.8829 0011783 107.7006 252.5519 15.25454280385666"
      },
      "geometry": {
        "type": "Point",
        "coordinates": [
          -140.67437163277907,
          14.88626758796707
        ]
      }
    },
    {
      "type": "Feature",
      "properties": {
        "norad_id": 43833,
        "name": "SAUDISAT 5B",
        "group": "resource",
        "lat": -24.57918487954086,
        "lon": -143.29965023976916,
        "alt_km": 494.8835485545642,
        "timestamp": "2025-12-02T23:34:15.171312+00:00",
        "meta_object_name": "SAUDISAT 5B",
        "meta_object_id": "2018-102C",
        "meta_epoch": "2025-12-02T11:39:36.609696",
        "meta_mean_motion": 15.25811924,
        "meta_eccentricity": 0.0012442,
        "meta_inclination": 97.347,
        "meta_ra_of_asc_node": 39.5961,
        "meta_arg_of_pericenter": 110.3146,
        "meta_mean_anomaly": 249.9431,
        "meta_ephemeris_type": 0,
        "meta_classification_type": "U",
        "meta_norad_cat_id": 43833,
        "meta_element_set_no": 999,
        "meta_rev_at_epoch": 38577,
        "meta_bstar": 0.00030323,
        "meta_mean_motion_dot": 7.699e-05,
        "meta_mean_motion_ddot": 0,
        "tle_line1": "1 43833U 18102C   25336.48584039  .00007699  00000+0  30323-3 0  9997",
        "tle_line2": "2 43833  97.3470  39.5961 0012442 110.3146 249.9431 15.25811924385775"
      },
      "geometry": {
        "type": "Point",
        "coordinates": [
          -143.29965023976916,
          -24.57918487954086
        ]
      }
    },
    {
      "type": "Feature",
      "properties": {
        "norad_id": 44622,
        "name": "GAOFEN-10R",
        "group": "resource",
        "lat": -40.507831996533184,
        "lon": 97.52796555157538,
        "alt_km": 632.4231211716387,
        "timestamp": "2025-12-02T23:34:15.171323+00:00",
        "meta_object_name": "GAOFEN-10R",
        "meta_object_id": "2019-066A",
        "meta_epoch": "2025-12-02T12:51:37.870272",
        "meta_mean_motion": 14.82732569,
        "meta_eccentricity": 0.0008298,
        "meta_inclination": 98.0259,
        "meta_ra_of_asc_node": 284.0035,
        "meta_arg_of_pericenter": 69.6447,
        "meta_mean_anomaly": 290.5656,
        "meta_ephemeris_type": 0,
        "meta_classification_type": "U",
        "meta_norad_cat_id": 44622,
        "meta_element_set_no": 999,
        "meta_rev_at_epoch": 33323,
        "meta_bstar": 0.00030987,
        "meta_mean_motion_dot": 2.449e-05,
        "meta_mean_motion_ddot": 0,
        "tle_line1": "1 44622U 19066A   25336.53585498  .00002449  00000+0  30987-3 0  9994",
        "tle_line2": "2 44622  98.0259 284.0035 0008298  69.6447 290.5656 14.82732569333232"
      },
      "geometry": {
        "type": "Point",
        "coordinates": [
          97.52796555157538,
          -40.507831996533184
        ]
      }
    },
    {
      "type": "Feature",
      "properties": {
        "norad_id": 44804,
        "name": "CARTOSAT-3",
        "group": "resource",
        "lat": -4.038973637886692,
        "lon": -143.84184311279557,
        "alt_km": 507.9531171198787,
        "timestamp": "2025-12-02T23:34:15.171333+00:00",
        "meta_object_name": "CARTOSAT-3",
        "meta_object_id": "2019-081A",
        "meta_epoch": "2025-12-02T14:51:40.156128",
        "meta_mean_motion": 15.1922655,
        "meta_eccentricity": 0.0013778,
        "meta_inclination": 97.4603,
        "meta_ra_of_asc_node": 36.3299,
        "meta_arg_of_pericenter": 118.8523,
        "meta_mean_anomaly": 241.4096,
        "meta_ephemeris_type": 0,
        "meta_classification_type": "U",
        "meta_norad_cat_id": 44804,
        "meta_element_set_no": 999,
        "meta_rev_at_epoch": 33362,
        "meta_bstar": 0.00014051,
        "meta_mean_motion_dot": 2.897e-05,
        "meta_mean_motion_ddot": 0,
        "tle_line1": "1 44804U 19081A   25336.61921477  .00002897  00000+0  14051-3 0  9994",
        "tle_line2": "2 44804  97.4603  36.3299 0013778 118.8523 241.4096 15.19226550333626"
      },
      "geometry": {
        "type": "Point",
        "coordinates": [
          -143.84184311279557,
          -4.038973637886692
        ]
      }
    },
    {
      "type": "Feature",
      "properties": {
        "norad_id": 44819,
        "name": "GAOFEN-12 01",
        "group": "resource",
        "lat": -22.191997192315636,
        "lon": 160.30840249385614,
        "alt_km": 632.8649836991772,
        "timestamp": "2025-12-02T23:34:15.171343+00:00",
        "meta_object_name": "GAOFEN-12 01",
        "meta_object_id": "2019-082A",
        "meta_epoch": "2025-12-02T12:55:42.328704",
        "meta_mean_motion": 14.80637862,
        "meta_eccentricity": 0.0001298,
        "meta_inclination": 97.8128,
        "meta_ra_of_asc_node": 343.0874,
        "meta_arg_of_pericenter": 303.3745,
        "meta_mean_anomaly": 56.7344,
        "meta_ephemeris_type": 0,
        "meta_classification_type": "U",
        "meta_norad_cat_id": 44819,
        "meta_element_set_no": 999,
        "meta_rev_at_epoch": 32499,
        "meta_bstar": 0.00010273,
        "meta_mean_motion_dot": 7.38e-06,
        "meta_mean_motion_ddot": 0,
        "tle_line1": "1 44819U 19082A   25336.53868436  .00000738  00000+0  10273-3 0  9991",
        "tle_line2": "2 44819  97.8128 343.0874 0001298 303.3745  56.7344 14.80637862324998"
      },
      "geometry": {
        "type": "Point",
        "coordinates": [
          160.30840249385614,
          -22.191997192315636
        ]
      }
    }
  ]
}